     2.100          NAVIGATION                              RINEX VERSION / TYPE
fic2rin                                 05/31/2016 00:14:13 PGM / RUN BY / DATE
                                                            END OF HEADER
16 16  5 31  0  0  0.0 -.140368938446D-04  .250111042988D-11  .000000000000D+00
     .490000000000D+02 -.295937500000D+02  .365050920122D-08 -.116444608063D+01
    -.157207250595D-05  .875661382452D-02  .104419887066D-04  .515377209854D+04
     .172800000000D+06  .137835741043D-06  .197027062685D+01 -.109896063805D-06
     .990699316066D+00  .186062500000D+03  .386610892101D+00 -.769317759458D-08
     .942896418278D-10  .100000000000D+01  .189900000000D+04  .000000000000D+00
     .240000000000D+01  .000000000000D+00 -.107102096081D-07  .490000000000D+02
     .165606000000D+06  .400000000000D+01
17 16  5 31  0  0  0.0 -.203928444535D-03 -.113686837722D-12  .000000000000D+00
     .100000000000D+02  .241250000000D+02  .435875298813D-08 -.203299698164D+01
     .138580799103D-05  .109550039051D-01  .713579356670D-05  .515369919205D+04
     .172800000000D+06  .119209289551D-06  .299164299309D+01  .100582838058D-06
     .976731557110D+00  .247500000000D+03 -.192755484674D+01 -.790354350003D-08
     .503592405216D-09  .100000000000D+01  .189900000000D+04  .000000000000D+00
     .240000000000D+01  .000000000000D+00 -.107102096081D-07  .100000000000D+02
     .165606000000D+06  .400000000000D+01
18 16  5 31  0  0  0.0  .521307345480D-03  .409272615798D-11  .000000000000D+00
     .710000000000D+02 -.102187500000D+02  .537093800684D-08 -.476259882753D+00
    -.528991222382D-06  .172046240186D-01  .114366412163D-04  .515369236374D+04
     .172800000000D+06 -.119209289551D-06 -.127544547266D+01  .175088644028D-06
     .924707716417D+00  .141656250000D+03 -.188311619094D+01 -.875250743421D-08
    -.261796619166D-09  .100000000000D+01  .189900000000D+04  .000000000000D+00
     .240000000000D+01  .000000000000D+00 -.121071934700D-07  .710000000000D+02
     .165606000000D+06  .400000000000D+01
20 16  5 31  0  0  0.0  .415483955294D-03  .227373675443D-11  .000000000000D+00
     .480000000000D+02 -.245937500000D+02  .519521640162D-08 -.283417255121D+01
    -.124052166939D-05  .457100337371D-02  .110026448965D-04  .515374705315D+04
     .172800000000D+06  .745058059692D-07 -.132727710640D+01  .111758708954D-07
     .925959065820D+00  .148125000000D+03  .137601238332D+01 -.824891502899D-08
    -.291797868838D-09  .100000000000D+01  .189900000000D+04  .000000000000D+00
     .240000000000D+01  .000000000000D+00 -.838190317154D-08  .480000000000D+02
     .165606000000D+06  .400000000000D+01
21 16  5 31  0  0  0.0 -.524369068444D-03 -.113686837722D-11  .000000000000D+00
     .380000000000D+02 -.468750000000D+02  .573702468439D-08  .411789422397D+00
    -.224448740482D-05  .233698361553D-01  .588782131672D-05  .515360212517D+04
     .172800000000D+06 -.311061739922D-06 -.231770651847D+01  .353902578354D-07
     .936307540579D+00  .260375000000D+03 -.178754892277D+01 -.916395314400D-08
    -.306084178206D-09  .100000000000D+01  .189900000000D+04  .000000000000D+00
     .240000000000D+01  .000000000000D+00 -.102445483208D-07  .380000000000D+02
     .165606000000D+06  .400000000000D+01
22 16  5 31  0  0  0.0  .330880284309D-03 -.841282599140D-11  .000000000000D+00
     .140000000000D+02 -.345625000000D+02  .519093050881D-08 -.246206230646D+01
    -.178627669811D-05  .768260983750D-02  .112634152174D-04  .515381947708D+04
     .172800000000D+06  .819563865662D-07 -.127480668802D+01 -.167638063431D-07
     .922609084360D+00  .138125000000D+03 -.191590861589D+01 -.821248494010D-08
    -.227152318949D-09  .100000000000D+01  .189900000000D+04  .000000000000D+00
     .240000000000D+01  .000000000000D+00 -.176951289177D-07  .140000000000D+02
     .165606000000D+06  .400000000000D+01
23 16  5 31  0  0  0.0 -.176062341779D-03 -.159161572810D-11  .000000000000D+00
     .440000000000D+02  .779062500000D+02  .478841374237D-08  .294183583170D+01
     .390410423279D-05  .109675781569D-01  .833719968796D-05  .515367228127D+04
     .172800000000D+06 -.800937414169D-07 -.197813035318D+00 -.134110450745D-06
     .946304891591D+00  .209531250000D+03 -.257323582962D+01 -.809069415274D-08
     .208222959036D-09  .100000000000D+01  .189900000000D+04  .000000000000D+00
     .240000000000D+01  .000000000000D+00 -.200234353542D-07  .440000000000D+02
     .165606000000D+06  .400000000000D+01
25 16  5 31  0  0  0.0 -.181232113391D-03 -.704858393874D-11  .000000000000D+00
     .330000000000D+02 -.151562500000D+02  .399730936112D-08  .331691924826D+00
    -.957399606705D-06  .562523538247D-02  .107605010271D-04  .515375331497D+04
     .172800000000D+06  .000000000000D+00  .190051315568D+01  .894069671631D-07
     .978387564283D+00  .185812500000D+03  .776037491888D+00 -.790997233924D-08
    -.439304013061D-10  .100000000000D+01  .189900000000D+04  .000000000000D+00
     .240000000000D+01  .000000000000D+00  .558793544769D-08  .330000000000D+02
     .165606000000D+06  .400000000000D+01
26 16  5 31  0  0  0.0 -.380990095437D-03 -.118234311230D-10  .000000000000D+00
     .940000000000D+02 -.313125000000D+02  .435125267571D-08 -.474709236402D+00
    -.149197876453D-05  .102576392237D-02  .104941427708D-04  .515377011108D+04
     .172800000000D+06  .931322574615D-08  .189147492302D+01 -.298023223877D-07
     .960356743467D+00  .173156250000D+03  .188097282870D+00 -.806640742682D-08
    -.185722021782D-10  .100000000000D+01  .189900000000D+04  .000000000000D+00
     .240000000000D+01  .000000000000D+00  .698491930962D-08  .940000000000D+02
     .165606000000D+06  .400000000000D+01
27 16  5 31  0  0  0.0  .982061028481D-04  .409272615798D-11  .000000000000D+00
     .850000000000D+02  .265937500000D+02  .452876006961D-08 -.202835623537D+01
     .119954347610D-05  .370001047850D-02  .787712633610D-05  .515364076805D+04
     .172800000000D+06  .856816768646D-07  .294174432325D+01 -.126659870148D-06
     .971670657846D+00  .233781250000D+03  .287416839356D+00 -.812891003030D-08
     .510021244432D-09  .100000000000D+01  .189900000000D+04  .000000000000D+00
     .240000000000D+01  .000000000000D+00  .139698386192D-08  .850000000000D+02
     .165606000000D+06  .400000000000D+01
28 16  5 31  0  0  0.0  .526735093445D-03  .272848410532D-11  .000000000000D+00
     .310000000000D+02 -.162187500000D+02  .374872757812D-08 -.123953945771D+01
    -.443309545517D-06  .197298141429D-01  .997073948383D-05  .515363427925D+04
     .172800000000D+06 -.184401869774D-06  .197522120746D+01  .460073351860D-06
     .989407948538D+00  .207781250000D+03 -.161647965817D+01 -.785211278630D-08
     .407159816984D-10  .100000000000D+01  .189900000000D+04  .000000000000D+00
     .240000000000D+01  .000000000000D+00 -.111758708954D-07  .310000000000D+02
     .165606000000D+06  .400000000000D+01
29 16  5 31  0  0  0.0  .657008029521D-03 -.227373675443D-12  .000000000000D+00
     .680000000000D+02  .292812500000D+02  .449733018900D-08  .274498354004D+00
     .162422657013D-05  .959975644946D-03  .690296292305D-05  .515356273842D+04
     .172800000000D+06  .428408384323D-07  .300136362437D+01 -.353902578354D-07
     .977705576745D+00  .258875000000D+03 -.218900461077D+00 -.810390898891D-08
     .465019369923D-09  .100000000000D+01  .189900000000D+04  .000000000000D+00
     .240000000000D+01  .000000000000D+00 -.102445483208D-07  .680000000000D+02
     .165606000000D+06  .400000000000D+01
30 16  5 31  0  0  0.0  .129430089146D-03  .295585778076D-11  .000000000000D+00
     .140000000000D+03 -.162500000000D+02  .483448709008D-08  .156115954705D+01
    -.827014446259D-06  .211921997834D-02  .456161797047D-05  .515359958076D+04
     .172800000000D+06 -.372529029846D-07  .918963322808D+00  .223517417908D-07
     .952147381172D+00  .287531250000D+03  .301587383482D+01 -.841356474446D-08
    -.170364239212D-09  .100000000000D+01  .189900000000D+04  .000000000000D+00
     .240000000000D+01  .000000000000D+00  .325962901115D-08  .140000000000D+03
     .165606000000D+06  .400000000000D+01
31 16  5 31  0  0  0.0  .266350340098D-03 -.193267624127D-11  .000000000000D+00
     .950000000000D+02 -.145312500000D+02  .440518349357D-08  .130400470569D+01
    -.672414898872D-06  .816439418122D-02  .491552054882D-05  .515375071144D+04
     .172800000000D+06  .137835741043D-06  .884231166497D+00  .184401869774D-06
     .971196717739D+00  .288468750000D+03 -.396877229861D+00 -.817676916669D-08
    -.221794952936D-09  .100000000000D+01  .189900000000D+04  .000000000000D+00
     .240000000000D+01  .000000000000D+00 -.135041773319D-07  .950000000000D+02
     .165606000000D+06  .400000000000D+01
32 16  5 31  0  0  0.0 -.150646083057D-04 -.704858393874D-11  .000000000000D+00
     .270000000000D+02  .791250000000D+02  .454447500991D-08 -.166388550390D+01
     .407360494137D-05  .420881551690D-03  .805594027042D-05  .515361005974D+04
     .172800000000D+06  .707805156708D-07 -.201615569023D+00 -.132247805595D-06
     .959965295848D+00  .227468750000D+03 -.236561568116D+01 -.810533761985D-08
     .190007914592D-09  .100000000000D+01  .189900000000D+04  .000000000000D+00
     .240000000000D+01  .000000000000D+00  .465661287308D-09  .270000000000D+02
     .165606000000D+06  .400000000000D+01
 8 16  5 30 23 59 44.0 -.371555797756D-04 -.147792889038D-11  .000000000000D+00
     .200000000000D+01  .267187500000D+02  .472483966568D-08 -.114957320987D+01
     .129453837872D-05  .174157833681D-02  .795535743237D-05  .515369652176D+04
     .172784000000D+06 -.745058059692D-07  .293902095642D+01 -.949949026108D-07
     .963578149058D+00  .231000000000D+03 -.108982250360D+01 -.821962809479D-08
     .437161066656D-09  .100000000000D+01  .189900000000D+04  .000000000000D+00
     .240000000000D+01  .000000000000D+00  .465661287308D-08  .200000000000D+01
     .167886000000D+06  .400000000000D+01
